SUOMI-100               
1 43804U 18099AY  26068.68271181  .00014037  00000+0  54773-3 0  9995
2 43804  97.4315 129.5602 0008969 269.9465  90.0745 15.25995383398238
STARLINK-31546          
1 59470U 24068R   26067.96475684 -.00000964  00000+0 -25523-4 0  9996
2 59470  43.0063  34.9991 0000910 273.1701  86.9046 15.27574269108458
